NORAD_CAT_ID,OBJECT_NAME,OBJECT_TYPE,EPOCH,MEAN_MOTION,ECCENTRICITY,INCLINATION,RA_OF_ASC_NODE,ARG_OF_PERICENTER,MEAN_ANOMALY,BSTAR,MEAN_MOTION_DOT,MEAN_MOTION_DDOT,TLE_LINE0,TLE_LINE1,TLE_LINE2,SEMIMAJOR_AXIS,PERIOD,APOGEE,PERIGEE,DECAYED
53032.0,STARLINK-4115,PAYLOAD,2022-10-08 22:00:00,15.08801591,0.0001693,53.216,285.5704,61.8021,107.361,0.0015095,0.00023792,0.0,0 STARLINK-4115,1 53032U 22076AY  22281.91667824  .00023792  00000-0  15095-2 0  9993,2 53032  53.2160 285.5704 0001693  61.8021 107.3610 15.08801591  1300,6917.998000000001,95.44,541.034,538.692,0.0
53032.0,STARLINK-4115,PAYLOAD,2022-10-09 14:00:01,15.0883981,0.0001908,53.2162,282.5786,58.1024,134.1942,0.00026148,3.876e-05,0.0,0 STARLINK-4115,1 53032U 22076AY  22282.58334491  .00003876  00000-0  26148-3 0  9991,2 53032  53.2162 282.5786 0001908  58.1024 134.1942 15.08839810  1301,6917.880999999999,95.438,541.066,538.4259999999998,0.0
53032.0,STARLINK-4115,PAYLOAD,2022-10-09 22:00:00,15.08812919,0.0001696999999999,53.217,281.0829,64.2158,139.6825,0.0024064,0.00038189,0.0,0 STARLINK-4115,1 53032U 22076AY  22282.91667824  .00038189  00000-0  24064-2 0  9996,2 53032  53.2170 281.0829 0001697  64.2158 139.6825 15.08812919  1304,6917.9630000000025,95.439,541.002,538.654,0.0
53032.0,STARLINK-4115,PAYLOAD,2022-10-10 08:00:01,15.08811286,0.0001791,53.2175,279.2203,62.6666,245.7111,0.0010146,0.00015884,0.0,0 STARLINK-4115,1 53032U 22076AY  22283.33334491  .00015884  00000-0  10146-2 0  9997,2 53032  53.2175 279.2203 0001791  62.6666 245.7111 15.08811286 15303,6917.968000000003,95.439,541.072,538.594,0.0
53032.0,STARLINK-4115,PAYLOAD,2022-10-10 14:00:01,15.08826997,0.0001715,53.217,278.1009,65.6926,161.3544,0.00094593,0.00014793,0.0,0 STARLINK-4115,1 53032U 22076AY  22283.58334491  .00014793  00000-0  94593-3 0  9991,2 53032  53.2170 278.1009 0001715  65.6926 161.3544 15.08826997  1301,6917.92,95.438,540.972,538.599,0.0
53032.0,STARLINK-4115,PAYLOAD,2022-10-10 22:00:01,15.08916008,0.0001558,53.2171,276.5977,61.0957,177.6923,-0.017596,-0.00270534,0.0,0 STARLINK-4115,1 53032U 22076AY  22283.91668981 -.00270534  00000-0 -17596-1 0  9997,2 53032  53.2171 276.5977 0001558  61.0957 177.6923 15.08916008  1301,6917.648,95.433,540.591,538.435,0.0
53032.0,STARLINK-4115,PAYLOAD,2022-10-11 06:00:00,15.08814351,0.0001708,53.2174,275.0987,58.7815,191.5266,-0.0013119,-0.00021092,0.0,0 STARLINK-4115,1 53032U 22076AY  22284.25001157 -.00021092  00000-0 -13119-2 0  9992,2 53032  53.2174 275.0987 0001708  58.7815 191.5266 15.08814351 15445,6917.959,95.439,541.005,538.6419999999998,0.0
53032.0,STARLINK-4115,PAYLOAD,2022-10-11 14:00:01,15.08784611,0.0001745,53.2171,273.6069,56.0503,205.8142,0.0033,0.00052544,0.0,0 STARLINK-4115,1 53032U 22076AY  22284.58334491  .00052544  00000-0  33000-2 0  9993,2 53032  53.2171 273.6069 0001745  56.0503 205.8142 15.08784611  1300,6918.05,95.441,541.122,538.707,0.0
53032.0,STARLINK-4115,PAYLOAD,2022-10-11 22:00:00,15.08784526,0.0001476999999999,53.2172,272.1019,65.6284,207.7858,0.0030437,0.00048412,0.0,0 STARLINK-4115,1 53032U 22076AY  22284.91667824  .00048412  00000-0  30437-2 0  9999,2 53032  53.2172 272.1019 0001477  65.6284 207.7858 15.08784526  1304,6918.05,95.441,540.937,538.893,0.0
53032.0,STARLINK-4115,PAYLOAD,2022-10-12 06:00:00,15.08815067,0.0001621999999999,53.2172,270.6089,59.3981,225.5697,0.00047671,7.302e-05,0.0,0 STARLINK-4115,1 53032U 22076AY  22285.25001157  .00007302  00000-0  47671-3 0  9990,2 53032  53.2172 270.6089 0001622  59.3981 225.5697 15.08815067 15590,6917.956999999999,95.439,540.944,538.7,0.0
53032.0,STARLINK-4115,PAYLOAD,2022-10-12 14:00:01,15.08778866,0.0001665,53.2171,269.1175,57.3288,239.2108,0.011478,0.00186961,0.0,0 STARLINK-4115,1 53032U 22076AY  22285.58334491  .00186961  00000-0  11478-1 0  9999,2 53032  53.2171 269.1175 0001665  57.3288 239.2108 15.08778866  1301,6918.066999999999,95.441,541.0840000000002,538.78,0.0
53032.0,STARLINK-4115,PAYLOAD,2022-10-12 22:00:00,15.08949636,0.0001671,53.2174,267.6243,63.81800000000001,244.3104,-0.0107549999999999,-0.00167995,0.0,0 STARLINK-4115,1 53032U 22076AY  22285.91667824 -.00167995  00000-0 -10755-1 0  9990,2 53032  53.2174 267.6243 0001671  63.8180 244.3104 15.08949636 15698,6917.545,95.431,540.566,538.254,0.0
53032.0,STARLINK-4115,PAYLOAD,2022-10-13 14:00:01,15.08932587,0.0001345,53.2172,264.632,62.7294,268.5844,-0.0083166,-0.00130586,0.0,0 STARLINK-4115,1 53032U 22076AY  22286.58334491 -.00130586  00000-0 -83166-2 0  9998,2 53032  53.2172 264.6320 0001345  62.7294 268.5844 15.08932587  1300,6917.597,95.432,540.393,538.5319999999998,0.0
53032.0,STARLINK-4115,PAYLOAD,2022-10-13 20:00:01,15.08835497,0.0001262,53.2172,263.5116,71.5439,178.5856,7.972e-05,9.81e-06,0.0,0 STARLINK-4115,1 53032U 22076AY  22286.83335648  .00000981  00000-0  79720-4 0  9997,2 53032  53.2172 263.5116 0001262  71.5439 178.5856 15.08835497 15836,6917.894,95.438,540.632,538.886,0.0
53032.0,STARLINK-4115,PAYLOAD,2022-10-13 22:00:00,15.08834954,0.0001271,53.2175,263.1379,72.2858,270.6785,0.00023171,3.401e-05,0.0,0 STARLINK-4115,1 53032U 22076AY  22286.91667824  .00003401  00000-0  23171-3 0  9998,2 53032  53.2175 263.1379 0001271  72.2858 270.6785 15.08834954  1308,6917.896,95.438,540.64,538.882,0.0
53032.0,STARLINK-4115,PAYLOAD,2022-10-14 14:00:01,15.08841411,0.0001419999999999,53.2171,260.1435,71.257,294.8904,-0.00055084,-9.044e-05,0.0,0 STARLINK-4115,1 53032U 22076AY  22287.58334491 -.00009044  00000-0 -55084-3 0  9992,2 53032  53.2171 260.1435 0001420  71.2570 294.8904 15.08841411  1307,6917.876,95.437,540.7230000000002,538.759,0.0
53032.0,STARLINK-4115,PAYLOAD,2022-10-14 20:00:01,15.08835727,0.0001333,53.2173,259.0227,77.2246,207.6184,6.6277e-05,7.67e-06,0.0,0 STARLINK-4115,1 53032U 22076AY  22287.83334491  .00000767  00000-0  66277-4 0  9998,2 53032  53.2173 259.0227 0001333  77.2246 207.6184 15.08835727  1309,6917.893,95.438,540.681,538.836,0.0
53032.0,STARLINK-4115,PAYLOAD,2022-10-15 06:00:00,15.08838486,0.0001429,53.2175,257.1543,73.3167,316.0141,-0.00020272,-3.513e-05,0.0,0 STARLINK-4115,1 53032U 22076AY  22288.25001157 -.00003513  00000-0 -20272-3 0  9993,2 53032  53.2175 257.1543 0001429  73.3167 316.0141 15.08838486 16046,6917.885,95.438,540.739,538.761,0.0
53032.0,STARLINK-4115,PAYLOAD,2022-10-15 14:00:01,15.08879099,0.0001556,53.2165,255.6432,65.9333,335.0289,-0.0039992,-0.00063443,0.0,0 STARLINK-4115,1 53032U 22076AY  22288.58334491 -.00063443  00000-0 -39992-2 0  9995,2 53032  53.2165 255.6432 0001556  65.9333 335.0289 15.08879099  1300,6917.761,95.435,540.702,538.549,0.0
53032.0,STARLINK-4115,PAYLOAD,2022-10-15 22:00:01,15.08849702,0.0001399,53.2167,254.1461,70.51100000000002,342.1187,-0.0031918,-0.00050741,0.0,0 STARLINK-4115,1 53032U 22076AY  22288.91668981 -.00050741  00000-0 -31918-2 0  9993,2 53032  53.2167 254.1461 0001399  70.5110 342.1187 15.08849702  1302,6917.851,95.437,540.684,538.748,0.0
53032.0,STARLINK-4115,PAYLOAD,2022-10-16 14:00:01,15.08811429,0.0001322,53.2169,251.155,61.2931,14.3917,-0.00072146,-0.00011742,0.0,0 STARLINK-4115,1 53032U 22076AY  22289.58334491 -.00011742  00000-0 -72146-3 0  9990,2 53032  53.2169 251.1550 0001322  61.2931  14.3917 15.08811429 16247,6917.968000000003,95.439,540.747,538.918,0.0
53032.0,STARLINK-4115,PAYLOAD,2022-10-16 22:00:00,15.08816317,0.0001333,53.217,249.6583,69.1773,18.0631,0.0018828,0.00029784,0.0,0 STARLINK-4115,1 53032U 22076AY  22289.91667824  .00029784  00000-0  18828-2 0  9995,2 53032  53.2170 249.6583 0001333  69.1773  18.0631 15.08816317  1306,6917.953,95.439,540.74,538.896,0.0
53032.0,STARLINK-4115,PAYLOAD,2022-10-17 06:00:00,15.08819673,0.0001465999999999,53.2171,248.1643,59.8294,38.9917,0.002255,0.00035763,0.0,0 STARLINK-4115,1 53032U 22076AY  22290.25001157  .00035763  00000-0  22550-2 0  9996,2 53032  53.2171 248.1643 0001466  59.8294  38.9917 15.08819673 16345,6917.943,95.439,540.822,538.793,0.0
53032.0,STARLINK-4115,PAYLOAD,2022-10-17 14:00:01,15.08862901,0.000137,53.2174,246.667,63.3256,47.0834,-0.00074622,-0.00012152,0.0,0 STARLINK-4115,1 53032U 22076AY  22290.58334491 -.00012152  00000-0 -74622-3 0  9999,2 53032  53.2174 246.6670 0001370  63.3256  47.0834 15.08862901  1304,6917.81,95.436,540.623,538.7280000000002,0.0
53032.0,STARLINK-4115,PAYLOAD,2022-10-17 22:00:00,15.08869891,0.0001409,53.2173,245.1702,71.3544,50.6729,-0.0012152999999999,-0.00019593,0.0,0 STARLINK-4115,1 53032U 22076AY  22290.91667824 -.00019593  00000-0 -12153-2 0  9991,2 53032  53.2173 245.1702 0001409  71.3544  50.6729 15.08869891  1303,6917.7890000000025,95.436,540.629,538.679,0.0
53032.0,STARLINK-4115,PAYLOAD,2022-10-18 08:00:01,15.0880325,0.0001456,53.217,243.2999,57.8877,168.6423,0.0032543,0.00051833,0.0,0 STARLINK-4115,1 53032U 22076AY  22291.33334491  .00051833  00000-0  32543-2 0  9995,2 53032  53.2170 243.2999 0001456  57.8877 168.6423 15.08803250 16514,6917.993,95.44,540.865,538.85,0.0
53032.0,STARLINK-4115,PAYLOAD,2022-10-18 14:00:01,15.0883762,0.000135,53.2171,242.1763,64.8993,80.3066,-0.00041748,-6.925e-05,0.0,0 STARLINK-4115,1 53032U 22076AY  22291.58334491 -.00006925  00000-0 -41748-3 0  9994,2 53032  53.2171 242.1763 0001350  64.8993  80.3066 15.08837620  1304,6917.888000000001,95.438,540.687,538.819,0.0
53032.0,STARLINK-4115,PAYLOAD,2022-10-18 22:00:00,15.08850057,0.0001371,53.2174,240.6797,70.3938,86.3981,0.00064703,0.00010027,0.0,0 STARLINK-4115,1 53032U 22076AY  22291.91667824  .00010027  00000-0  64703-3 0  9992,2 53032  53.2174 240.6797 0001371  70.3938  86.3981 15.08850057  1302,6917.85,95.437,540.663,538.766,0.0
53032.0,STARLINK-4115,PAYLOAD,2022-10-19 14:00:01,15.08850582,0.000148,53.2169,237.6871,69.8593,110.1552,-0.00063083,-0.00010317,0.0,0 STARLINK-4115,1 53032U 22076AY  22292.58334491 -.00010317  00000-0 -63083-3 0  9991,2 53032  53.2169 237.6871 0001480  69.8593 110.1552 15.08850582  1309,6917.848000000001,95.437,540.737,538.689,0.0
